{"type": "FeatureCollection", "features": [ {"type": "Feature", "properties": {"norad_id": 66807, "name": "STARLINK-36000", "group": "last-30-days", "lat": 29.6439379025301, "lon": -5.008086702017071, "alt_km": 360.735998834165, "timestamp": "2025-12-19T04:59:47.031270+00:00", "meta": {"OBJECT_NAME": "STARLINK-36000", "OBJECT_ID": "2025-278S", "EPOCH": "2025-12-19T00:00:02.000160", "MEAN_MOTION": 15.68860325, "ECCENTRICITY": 0.00015696, "INCLINATION": 42.9992, "RA_OF_ASC_NODE": 213.8857, "ARG_OF_PERICENTER": 271.9085, "MEAN_ANOMALY": 124.766, "EPHEMERIS_TYPE": 0, "CLASSIFICATION_TYPE": "U", "NORAD_CAT_ID": 66807, "ELEMENT_SET_NO": 999, "REV_AT_EPOCH": 402, "BSTAR": -0.018129095, "MEAN_MOTION_DOT": -0.01900429, "MEAN_MOTION_DDOT": 0}, "tle": {"line1": "1 66807U 25278S   25353.00002315 -.01900429  00000+0 -18129-1 0  9998", "line2": "2 66807  42.9992 213.8857 0001569 271.9085 124.7660 15.68860325  4027"}}, "geometry": {"type": "Point", "coordinates": [-5.008086702017071, 29.6439379025301]}}, {"type": "Feature", "properties": {"norad_id": 66808, "name": "STARLINK-36071", "group": "last-30-days", "lat": 28.594855179675104, "lon": -3.172051958197873, "alt_km": 360.9752378942221, "timestamp": "2025-12-19T04:59:47.031280+00:00", "meta": {"OBJECT_NAME": "STARLINK-36071", "OBJECT_ID": "2025-278T", "EPOCH": "2025-12-19T00:00:02.000160", "MEAN_MOTION": 15.68849761, "ECCENTRICITY": 0.00016925, "INCLINATION": 42.9994, "RA_OF_ASC_NODE": 213.8808, "ARG_OF_PERICENTER": 272.9595, "MEAN_ANOMALY": 125.6402, "EPHEMERIS_TYPE": 0, "CLASSIFICATION_TYPE": "U", "NORAD_CAT_ID": 66808, "ELEMENT_SET_NO": 999, "REV_AT_EPOCH": 396, "BSTAR": -0.018028948, "MEAN_MOTION_DOT": -0.01890464, "MEAN_MOTION_DDOT": 0}, "tle": {"line1": "1 66808U 25278T   25353.00002315 -.01890464  00000+0 -18029-1 0  9995", "line2": "2 66808  42.9994 213.8808 0001692 272.9595 125.6402 15.68849761  3967"}}, "geometry": {"type": "Point", "coordinates": [-3.172051958197873, 28.594855179675104]}}, {"type": "Feature", "properties": {"norad_id": 66809, "name": "STARLINK-35979", "group": "last-30-days", "lat": 25.297128232382125, "lon": 2.135596609632336, "alt_km": 361.6417838861107, "timestamp": "2025-12-19T04:59:47.031292+00:00", "meta": {"OBJECT_NAME": "STARLINK-35979", "OBJECT_ID": "2025-278U", "EPOCH": "2025-12-19T00:00:02.000160", "MEAN_MOTION": 15.68816294, "ECCENTRICITY": 0.00018181, "INCLINATION": 42.9992, "RA_OF_ASC_NODE": 213.8654, "ARG_OF_PERICENTER": 277.8804, "MEAN_ANOMALY": 126.5141, "EPHEMERIS_TYPE": 0, "CLASSIFICATION_TYPE": "U", "NORAD_CAT_ID": 66809, "ELEMENT_SET_NO": 999, "REV_AT_EPOCH": 396, "BSTAR": -0.017896204, "MEAN_MOTION_DOT": -0.01875866, "MEAN_MOTION_DDOT": 0}, "tle": {"line1": "1 66809U 25278U   25353.00002315 -.01875866  00000+0 -17896-1 0  9996", "line2": "2 66809  42.9992 213.8654 0001818 277.8804 126.5141 15.68816294  3967"}}, "geometry": {"type": "Point", "coordinates": [2.135596609632336, 25.297128232382125]}}, {"type": "Feature", "properties": {"norad_id": 66810, "name": "STARLINK-36046", "group": "last-30-days", "lat": 27.521923901711045, "lon": -1.373676890595801, "alt_km": 361.1400006648846, "timestamp": "2025-12-19T04:59:47.031303+00:00", "meta": {"OBJECT_NAME": "STARLINK-36046", "OBJECT_ID": "2025-278V", "EPOCH": "2025-12-19T00:00:02.000160", "MEAN_MOTION": 15.68855697, "ECCENTRICITY": 0.00016434, "INCLINATION": 42.9994, "RA_OF_ASC_NODE": 213.8762, "ARG_OF_PERICENTER": 276.4524, "MEAN_ANOMALY": 124.06, "EPHEMERIS_TYPE": 0, "CLASSIFICATION_TYPE": "U", "NORAD_CAT_ID": 66810, "ELEMENT_SET_NO": 999, "REV_AT_EPOCH": 373, "BSTAR": -0.018082651, "MEAN_MOTION_DOT": -0.0189584, "MEAN_MOTION_DDOT": 0}, "tle": {"line1": "1 66810U 25278V   25353.00002315 -.01895840  00000+0 -18083-1 0  9991", "line2": "2 66810  42.9994 213.8762 0001643 276.4524 124.0600 15.68855697  3739"}}, "geometry": {"type": "Point", "coordinates": [-1.373676890595801, 27.521923901711045]}}, {"type": "Feature", "properties": {"norad_id": 66811, "name": "STARLINK-36045", "group": "last-30-days", "lat": 26.42517508417224, "lon": 0.3902600892879247, "alt_km": 361.17011441960767, "timestamp": "2025-12-19T04:59:47.031313+00:00", "meta": {"OBJECT_NAME": "STARLINK-36045", "OBJECT_ID": "2025-278W", "EPOCH": "2025-12-19T00:00:02.000160", "MEAN_MOTION": 15.68852015, "ECCENTRICITY": 0.00014779, "INCLINATION": 42.9992, "RA_OF_ASC_NODE": 213.871, "ARG_OF_PERICENTER": 273.5084, "MEAN_ANOMALY": 128.9247, "EPHEMERIS_TYPE": 0, "CLASSIFICATION_TYPE": "U", "NORAD_CAT_ID": 66811, "ELEMENT_SET_NO": 999, "REV_AT_EPOCH": 396, "BSTAR": -0.018048869, "MEAN_MOTION_DOT": -0.01892318, "MEAN_MOTION_DDOT": 0}, "tle": {"line1": "1 66811U 25278W   25353.00002315 -.01892318  00000+0 -18049-1 0  9991", "line2": "2 66811  42.9992 213.8710 0001477 273.5084 128.9247 15.68852015  3961"}}, "geometry": {"type": "Point", "coordinates": [0.3902600892879247, 26.42517508417224]}}, {"type": "Feature", "properties": {"norad_id": 66812, "name": "STARLINK-36054", "group": "last-30-days", "lat": 24.173265095982256, "lon": 3.8141793613256327, "alt_km": 361.53601531027834, "timestamp": "2025-12-19T04:59:47.031323+00:00", "meta": {"OBJECT_NAME": "STARLINK-36054", "OBJECT_ID": "2025-278X", "EPOCH": "2025-12-19T00:00:02.000160", "MEAN_MOTION": 15.68859701, "ECCENTRICITY": 0.000156, "INCLINATION": 42.9995, "RA_OF_ASC_NODE": 213.8614, "ARG_OF_PERICENTER": 275.2317, "MEAN_ANOMALY": 131.0292, "EPHEMERIS_TYPE": 0, "CLASSIFICATION_TYPE": "U", "NORAD_CAT_ID": 66812, "ELEMENT_SET_NO": 999, "REV_AT_EPOCH": 396, "BSTAR": -0.018124607, "MEAN_MOTION_DOT": -0.0189996, "MEAN_MOTION_DDOT": 0}, "tle": {"line1": "1 66812U 25278X   25353.00002315 -.01899960  00000+0 -18125-1 0  9997", "line2": "2 66812  42.9995 213.8614 0001560 275.2317 131.0292 15.68859701  3963"}}, "geometry": {"type": "Point", "coordinates": [3.8141793613256327, 24.173265095982256]}}, {"type": "Feature", "properties": {"norad_id": 66813, "name": "STARLINK-36042", "group": "last-30-days", "lat": 23.01832335126735, "lon": 5.479366924444528, "alt_km": 361.7149263313231, "timestamp": "2025-12-19T04:59:47.031333+00:00", "meta": {"OBJECT_NAME": "STARLINK-36042", "OBJECT_ID": "2025-278Y", "EPOCH": "2025-12-19T00:00:02.000160", "MEAN_MOTION": 15.68862889, "ECCENTRICITY": 0.00015751, "INCLINATION": 42.9987, "RA_OF_ASC_NODE": 213.8563, "ARG_OF_PERICENTER": 276.37, "MEAN_ANOMALY": 131.8051, "EPHEMERIS_TYPE": 0, "CLASSIFICATION_TYPE": "U", "NORAD_CAT_ID": 66813, "ELEMENT_SET_NO": 999, "REV_AT_EPOCH": 396, "BSTAR": -0.01815997, "MEAN_MOTION_DOT": -0.01903484, "MEAN_MOTION_DDOT": 0}, "tle": {"line1": "1 66813U 25278Y   25353.00002315 -.01903484  00000+0 -18160-1 0  9994", "line2": "2 66813  42.9987 213.8563 0001575 276.3700 131.8051 15.68862889  3964"}}, "geometry": {"type": "Point", "coordinates": [5.479366924444528, 23.01832335126735]}}, {"type": "Feature", "properties": {"norad_id": 66814, "name": "STARLINK-35984", "group": "last-30-days", "lat": 15.76798667077839, "lon": 14.935667276340206, "alt_km": 362.633826100614, "timestamp": "2025-12-19T04:59:47.031343+00:00", "meta": {"OBJECT_NAME": "STARLINK-35984", "OBJECT_ID": "2025-278Z", "EPOCH": "2025-12-19T00:00:02.000160", "MEAN_MOTION": 15.68861093, "ECCENTRICITY": 0.00015632, "INCLINATION": 42.9993, "RA_OF_ASC_NODE": 213.8262, "ARG_OF_PERICENTER": 274.0645, "MEAN_ANOMALY": 145.6147, "EPHEMERIS_TYPE": 0, "CLASSIFICATION_TYPE": "U", "NORAD_CAT_ID": 66814, "ELEMENT_SET_NO": 999, "REV_AT_EPOCH": 405, "BSTAR": -0.01814094, "MEAN_MOTION_DOT": -0.01901579, "MEAN_MOTION_DDOT": 0}, "tle": {"line1": "1 66814U 25278Z   25353.00002315 -.01901579  00000+0 -18141-1 0  9997", "line2": "2 66814  42.9993 213.8262 0001563 274.0645 145.6147 15.68861093  4054"}}, "geometry": {"type": "Point", "coordinates": [14.935667276340206, 15.76798667077839]}}, {"type": "Feature", "properties": {"norad_id": 66815, "name": "STARLINK-35985", "group": "last-30-days", "lat": 17.00838825499917, "lon": 13.416033025395306, "alt_km": 362.472526241002, "timestamp": "2025-12-19T04:59:47.031353+00:00", "meta": {"OBJECT_NAME": "STARLINK-35985", "OBJECT_ID": "2025-278AA", "EPOCH": "2025-12-19T00:00:02.000160", "MEAN_MOTION": 15.68862705, "ECCENTRICITY": 0.00015235, "INCLINATION": 42.9992, "RA_OF_ASC_NODE": 213.831, "ARG_OF_PERICENTER": 274.9083, "MEAN_ANOMALY": 142.8528, "EPHEMERIS_TYPE": 0, "CLASSIFICATION_TYPE": "U", "NORAD_CAT_ID": 66815, "ELEMENT_SET_NO": 999, "REV_AT_EPOCH": 405, "BSTAR": -0.018156785, "MEAN_MOTION_DOT": -0.01903136, "MEAN_MOTION_DDOT": 0}, "tle": {"line1": "1 66815U 25278AA  25353.00002315 -.01903136  00000+0 -18157-1 0  9996", "line2": "2 66815  42.9992 213.8310 0001523 274.9083 142.8528 15.68862705  4052"}}, "geometry": {"type": "Point", "coordinates": [13.416033025395306, 17.00838825499917]}}, {"type": "Feature", "properties": {"norad_id": 66816, "name": "STARLINK-36098", "group": "last-30-days", "lat": 21.845497114516515, "lon": 7.118337114209434, "alt_km": 361.83302180499413, "timestamp": "2025-12-19T04:59:47.031366+00:00", "meta": {"OBJECT_NAME": "STARLINK-36098", "OBJECT_ID": "2025-278AB", "EPOCH": "2025-12-19T00:00:02.000160", "MEAN_MOTION": 15.68862918, "ECCENTRICITY": 0.00015066, "INCLINATION": 42.9993, "RA_OF_ASC_NODE": 213.8512, "ARG_OF_PERICENTER": 275.7038, "MEAN_ANOMALY": 134.3892, "EPHEMERIS_TYPE": 0, "CLASSIFICATION_TYPE": "U", "NORAD_CAT_ID": 66816, "ELEMENT_SET_NO": 999, "REV_AT_EPOCH": 380, "BSTAR": -0.018162044, "MEAN_MOTION_DOT": -0.01903627, "MEAN_MOTION_DDOT": 0}, "tle": {"line1": "1 66816U 25278AB  25353.00002315 -.01903627  00000+0 -18162-1 0  9998", "line2": "2 66816  42.9993 213.8512 0001506 275.7038 134.3892 15.68862918  3806"}}, "geometry": {"type": "Point", "coordinates": [7.118337114209434, 21.845497114516515]}}]}